[{"OBJECT_NAME":"STARLINK-2144","OBJECT_ID":"2021-017N","EPOCH":"2026-03-09T16:29:01.979808","MEAN_MOTION":15.30217954,"ECCENTRICITY":0.00013061,"INCLINATION":53.1608,"RA_OF_ASC_NODE":203.9031,"ARG_OF_PERICENTER":77.0045,"MEAN_ANOMALY":283.1101,"EPHEMERIS_TYPE":0,"CLASSIFICATION_TYPE":"U","NORAD_CAT_ID":47734,"ELEMENT_SET_NO":999,"REV_AT_EPOCH":27786,"BSTAR":0.00055726717,"MEAN_MOTION_DOT":0.00016191,"MEAN_MOTION_DDOT":0},{"OBJECT_NAME":"FENGYUN 1C DEB","OBJECT_ID":"1999-025BZU","EPOCH":"2026-03-09T17:19:51.665664","MEAN_MOTION":15.28412118,"ECCENTRICITY":0.00188802,"INCLINATION":98.9598,"RA_OF_ASC_NODE":354.2029,"ARG_OF_PERICENTER":82.3682,"MEAN_ANOMALY":277.9697,"EPHEMERIS_TYPE":0,"CLASSIFICATION_TYPE":"U","NORAD_CAT_ID":31614,"ELEMENT_SET_NO":999,"REV_AT_EPOCH":97742,"BSTAR":0.011500831,"MEAN_MOTION_DOT":0.0033373,"MEAN_MOTION_DDOT":0}]
